TRANSPORTER-11 OBJECT A 
1 60468U 24149A   26068.74646182  .00010774  00000+0  36054-3 0  9993
2 60468  97.3780 149.0949 0003110 191.0010 169.1164 15.31141332 86830
STARLINK-35272          
1 65899U 25224T   26068.13794916  .00034158  00000+0  11594-2 0  9996
2 65899  53.1594  13.6334 0001091  73.1013 287.0107 15.30219147 24781
